[
    {
        "CCSDS_OMM_VERS": "3.0",
        "COMMENT": "GENERATED VIA SPACE-TRACK.ORG API",
        "CREATION_DATE": "2024-08-10T22:46:31",
        "ORIGINATOR": "18 SPCS",
        "OBJECT_NAME": "FLOCK 1C 9",
        "OBJECT_ID": "2014-033AB",
        "CENTER_NAME": "EARTH",
        "REF_FRAME": "TEME",
        "TIME_SYSTEM": "UTC",
        "MEAN_ELEMENT_THEORY": "SGP4",
        "EPOCH": "2024-08-10T21:08:31.123392",
        "MEAN_MOTION": "15.23745637",
        "ECCENTRICITY": "0.00037220",
        "INCLINATION": "98.0844",
        "RA_OF_ASC_NODE": "213.3025",
        "ARG_OF_PERICENTER": "207.0074",
        "MEAN_ANOMALY": "153.0968",
        "EPHEMERIS_TYPE": "0",
        "CLASSIFICATION_TYPE": "U",
        "NORAD_CAT_ID": "40035",
        "ELEMENT_SET_NO": "999",
        "REV_AT_EPOCH": "55245",
        "BSTAR": "0.00295340000000",
        "MEAN_MOTION_DOT": "0.00071563",
        "MEAN_MOTION_DDOT": "0.0000000000000",
        "SEMIMAJOR_AXIS": "6872.692",
        "PERIOD": "94.504",
        "APOAPSIS": "497.115",
        "PERIAPSIS": "491.999",
        "OBJECT_TYPE": "PAYLOAD",
        "RCS_SIZE": "SMALL",
        "COUNTRY_CODE": "US",
        "LAUNCH_DATE": "2014-06-19",
        "SITE": "OREN",
        "DECAY_DATE": null,
        "FILE": "4427529",
        "GP_ID": "264735860",
        "TLE_LINE0": "0 FLOCK 1C 9",
        "TLE_LINE1": "1 40035U 14033AB  24223.88091578  .00071563  00000-0  29534-2 0  9999",
        "TLE_LINE2": "2 40035  98.0844 213.3025 0003722 207.0074 153.0968 15.23745637552453"
    },
    {
        "CCSDS_OMM_VERS": "3.0",
        "COMMENT": "GENERATED VIA SPACE-TRACK.ORG API",
        "CREATION_DATE": "2024-08-10T22:46:31",
        "ORIGINATOR": "18 SPCS",
        "OBJECT_NAME": "STARLINK-6134",
        "OBJECT_ID": "2023-090K",
        "CENTER_NAME": "EARTH",
        "REF_FRAME": "TEME",
        "TIME_SYSTEM": "UTC",
        "MEAN_ELEMENT_THEORY": "SGP4",
        "EPOCH": "2024-08-10T21:08:30.961824",
        "MEAN_MOTION": "15.02558606",
        "ECCENTRICITY": "0.00012160",
        "INCLINATION": "43.0026",
        "RA_OF_ASC_NODE": "163.7086",
        "ARG_OF_PERICENTER": "270.7531",
        "MEAN_ANOMALY": "89.3172",
        "EPHEMERIS_TYPE": "0",
        "CLASSIFICATION_TYPE": "U",
        "NORAD_CAT_ID": "57110",
        "ELEMENT_SET_NO": "999",
        "REV_AT_EPOCH": "6265",
        "BSTAR": "0.00130010000000",
        "MEAN_MOTION_DOT": "0.00017413",
        "MEAN_MOTION_DDOT": "0.0000000000000",
        "SEMIMAJOR_AXIS": "6937.147",
        "PERIOD": "95.837",
        "APOAPSIS": "559.856",
        "PERIAPSIS": "558.168",
        "OBJECT_TYPE": "PAYLOAD",
        "RCS_SIZE": "LARGE",
        "COUNTRY_CODE": "US",
        "LAUNCH_DATE": "2023-06-23",
        "SITE": "AFETR",
        "DECAY_DATE": null,
        "FILE": "4427541",
        "GP_ID": "264737974",
        "TLE_LINE0": "0 STARLINK-6134",
        "TLE_LINE1": "1 57110U 23090K   24223.88091391  .00017413  00000-0  13001-2 0  9993",
        "TLE_LINE2": "2 57110  43.0026 163.7086 0001216 270.7531  89.3172 15.02558606 62654"
    },
    {
        "CCSDS_OMM_VERS": "3.0",
        "COMMENT": "GENERATED VIA SPACE-TRACK.ORG API",
        "CREATION_DATE": "2024-08-10T22:46:31",
        "ORIGINATOR": "18 SPCS",
        "OBJECT_NAME": "STARLINK-31269",
        "OBJECT_ID": "2024-017U",
        "CENTER_NAME": "EARTH",
        "REF_FRAME": "TEME",
        "TIME_SYSTEM": "UTC",
        "MEAN_ELEMENT_THEORY": "SGP4",
        "EPOCH": "2024-08-10T21:08:22.372800",
        "MEAN_MOTION": "15.04943704",
        "ECCENTRICITY": "0.00011770",
        "INCLINATION": "53.1599",
        "RA_OF_ASC_NODE": "34.2173",
        "ARG_OF_PERICENTER": "95.9122",
        "MEAN_ANOMALY": "264.2002",
        "EPHEMERIS_TYPE": "0",
        "CLASSIFICATION_TYPE": "U",
        "NORAD_CAT_ID": "58844",
        "ELEMENT_SET_NO": "999",
        "REV_AT_EPOCH": "3140",
        "BSTAR": "0.00000201940000",
        "MEAN_MOTION_DOT": "-0.00000248",
        "MEAN_MOTION_DDOT": "0.0000000000000",
        "SEMIMAJOR_AXIS": "6929.815",
        "PERIOD": "95.685",
        "APOAPSIS": "552.496",
        "PERIAPSIS": "550.865",
        "OBJECT_TYPE": "PAYLOAD",
        "RCS_SIZE": "LARGE",
        "COUNTRY_CODE": "US",
        "LAUNCH_DATE": "2024-01-24",
        "SITE": "AFWTR",
        "DECAY_DATE": null,
        "FILE": "4427461",
        "GP_ID": "264735205",
        "TLE_LINE0": "0 STARLINK-31269",
        "TLE_LINE1": "1 58844U 24017U   24223.88081450 -.00000248  00000-0  20194-5 0  9996",
        "TLE_LINE2": "2 58844  53.1599  34.2173 0001177  95.9122 264.2002 15.04943704 31408"
    },
    {
        "CCSDS_OMM_VERS": "3.0",
        "COMMENT": "GENERATED VIA SPACE-TRACK.ORG API",
        "CREATION_DATE": "2024-08-10T23:06:21",
        "ORIGINATOR": "18 SPCS",
        "OBJECT_NAME": "OBJECT K",
        "OBJECT_ID": "2022-167K",
        "CENTER_NAME": "EARTH",
        "REF_FRAME": "TEME",
        "TIME_SYSTEM": "UTC",
        "MEAN_ELEMENT_THEORY": "SGP4",
        "EPOCH": "2024-08-10T21:08:21.935616",
        "MEAN_MOTION": "15.19849056",
        "ECCENTRICITY": "0.00097210",
        "INCLINATION": "97.6071",
        "RA_OF_ASC_NODE": "10.7645",
        "ARG_OF_PERICENTER": "267.1482",
        "MEAN_ANOMALY": "92.8640",
        "EPHEMERIS_TYPE": "0",
        "CLASSIFICATION_TYPE": "U",
        "NORAD_CAT_ID": "54691",
        "ELEMENT_SET_NO": "999",
        "REV_AT_EPOCH": "9272",
        "BSTAR": "0.00143130000000",
        "MEAN_MOTION_DOT": "0.00030764",
        "MEAN_MOTION_DDOT": "0.0000000000000",
        "SEMIMAJOR_AXIS": "6884.433",
        "PERIOD": "94.746",
        "APOAPSIS": "512.991",
        "PERIAPSIS": "499.606",
        "OBJECT_TYPE": "UNKNOWN",
        "RCS_SIZE": "MEDIUM",
        "COUNTRY_CODE": "PRC",
        "LAUNCH_DATE": "2022-12-09",
        "SITE": "YSLA",
        "DECAY_DATE": null,
        "FILE": "4427695",
        "GP_ID": "264742168",
        "TLE_LINE0": "0 OBJECT K",
        "TLE_LINE1": "1 54691U 22167K   24223.88080944  .00030764  00000-0  14313-2 0  9991",
        "TLE_LINE2": "2 54691  97.6071  10.7645 0009721 267.1482  92.8640 15.19849056 92726"
    },
    {
        "CCSDS_OMM_VERS": "3.0",
        "COMMENT": "GENERATED VIA SPACE-TRACK.ORG API",
        "CREATION_DATE": "2024-08-10T23:06:21",
        "ORIGINATOR": "18 SPCS",
        "OBJECT_NAME": "STARLINK-4401",
        "OBJECT_ID": "2022-099U",
        "CENTER_NAME": "EARTH",
        "REF_FRAME": "TEME",
        "TIME_SYSTEM": "UTC",
        "MEAN_ELEMENT_THEORY": "SGP4",
        "EPOCH": "2024-08-10T21:08:21.276384",
        "MEAN_MOTION": "15.01259672",
        "ECCENTRICITY": "0.00014420",
        "INCLINATION": "97.6561",
        "RA_OF_ASC_NODE": "343.9614",
        "ARG_OF_PERICENTER": "57.9582",
        "MEAN_ANOMALY": "302.1782",
        "EPHEMERIS_TYPE": "0",
        "CLASSIFICATION_TYPE": "U",
        "NORAD_CAT_ID": "53483",
        "ELEMENT_SET_NO": "999",
        "REV_AT_EPOCH": "10983",
        "BSTAR": "-0.00002195200000",
        "MEAN_MOTION_DOT": "-0.00000341",
        "MEAN_MOTION_DDOT": "0.0000000000000",
        "SEMIMAJOR_AXIS": "6941.148",
        "PERIOD": "95.919",
        "APOAPSIS": "564.014",
        "PERIAPSIS": "562.012",
        "OBJECT_TYPE": "PAYLOAD",
        "RCS_SIZE": "LARGE",
        "COUNTRY_CODE": "US",
        "LAUNCH_DATE": "2022-08-12",
        "SITE": "AFWTR",
        "DECAY_DATE": null,
        "FILE": "4427697",
        "GP_ID": "264741823",
        "TLE_LINE0": "0 STARLINK-4401",
        "TLE_LINE1": "1 53483U 22099U   24223.88080181 -.00000341  00000-0 -21952-4 0  9995",
        "TLE_LINE2": "2 53483  97.6561 343.9614 0001442  57.9582 302.1782 15.01259672109838"
    },
    {
        "CCSDS_OMM_VERS": "3.0",
        "COMMENT": "GENERATED VIA SPACE-TRACK.ORG API",
        "CREATION_DATE": "2024-08-10T22:46:31",
        "ORIGINATOR": "18 SPCS",
        "OBJECT_NAME": "STARLINK-31773",
        "OBJECT_ID": "2024-065J",
        "CENTER_NAME": "EARTH",
        "REF_FRAME": "TEME",
        "TIME_SYSTEM": "UTC",
        "MEAN_ELEMENT_THEORY": "SGP4",
        "EPOCH": "2024-08-10T21:08:12.981120",
        "MEAN_MOTION": "15.39609035",
        "ECCENTRICITY": "0.00011200",
        "INCLINATION": "53.1589",
        "RA_OF_ASC_NODE": "86.6761",
        "ARG_OF_PERICENTER": "81.2984",
        "MEAN_ANOMALY": "278.8147",
        "EPHEMERIS_TYPE": "0",
        "CLASSIFICATION_TYPE": "U",
        "NORAD_CAT_ID": "59429",
        "ELEMENT_SET_NO": "999",
        "REV_AT_EPOCH": "2061",
        "BSTAR": "0.00006103400000",
        "MEAN_MOTION_DOT": "0.00002042",
        "MEAN_MOTION_DDOT": "0.0000000000000",
        "SEMIMAJOR_AXIS": "6825.402",
        "PERIOD": "93.530",
        "APOAPSIS": "448.031",
        "PERIAPSIS": "446.502",
        "OBJECT_TYPE": "PAYLOAD",
        "RCS_SIZE": "LARGE",
        "COUNTRY_CODE": "US",
        "LAUNCH_DATE": "2024-04-07",
        "SITE": "AFWTR",
        "DECAY_DATE": null,
        "FILE": "4427417",
        "GP_ID": "264737157",
        "TLE_LINE0": "0 STARLINK-31773",
        "TLE_LINE1": "1 59429U 24065J   24223.88070580  .00002042  00000-0  61034-4 0  9991",
        "TLE_LINE2": "2 59429  53.1589  86.6761 0001120  81.2984 278.8147 15.39609035 20619"
    }
]